{"type": "FeatureCollection", "features": [ {"type": "Feature", "properties": {"norad_id": 34077, "name": "IRIDIUM 33 DEB", "group": "iridium-33-debris", "lat": -14.50682345158327, "lon": 55.045366333527994, "alt_km": 682.676350985601, "timestamp": "2025-12-02T13:52:17.646015+00:00", "meta": {"OBJECT_NAME": "IRIDIUM 33 DEB", "OBJECT_ID": "1997-051CL", "EPOCH": "2025-12-02T05:59:03.401952", "MEAN_MOTION": 14.64548903, "ECCENTRICITY": 0.00110206, "INCLINATION": 86.3871, "RA_OF_ASC_NODE": 56.1267, "ARG_OF_PERICENTER": 72.3746, "MEAN_ANOMALY": 341.7588, "EPHEMERIS_TYPE": 0, "CLASSIFICATION_TYPE": "U", "NORAD_CAT_ID": 34077, "ELEMENT_SET_NO": 999, "REV_AT_EPOCH": 88179, "BSTAR": 0.0020601929, "MEAN_MOTION_DOT": 0.00010964, "MEAN_MOTION_DDOT": 0}, "tle": {"line1": "1 34077U 97051CL  25336.24934493  .00010964  00000+0  20602-2 0  9991", "line2": "2 34077  86.3871  56.1267 0011020  72.3746 341.7588 14.64548903881799"}}, "geometry": {"type": "Point", "coordinates": [55.045366333527994, -14.50682345158327]}}, {"type": "Feature", "properties": {"norad_id": 34079, "name": "IRIDIUM 33 DEB", "group": "iridium-33-debris", "lat": 17.514486521093676, "lon": 14.427715518927439, "alt_km": 615.6627072335432, "timestamp": "2025-12-02T13:52:17.646026+00:00", "meta": {"OBJECT_NAME": "IRIDIUM 33 DEB", "OBJECT_ID": "1997-051CN", "EPOCH": "2025-12-02T02:41:47.766624", "MEAN_MOTION": 14.83089059, "ECCENTRICITY": 0.00068188, "INCLINATION": 86.379, "RA_OF_ASC_NODE": 13.4941, "ARG_OF_PERICENTER": 39.8853, "MEAN_ANOMALY": 13.4166, "EPHEMERIS_TYPE": 0, "CLASSIFICATION_TYPE": "U", "NORAD_CAT_ID": 34079, "ELEMENT_SET_NO": 999, "REV_AT_EPOCH": 88820, "BSTAR": 0.0017614737, "MEAN_MOTION_DOT": 0.00014386, "MEAN_MOTION_DDOT": 0}, "tle": {"line1": "1 34079U 97051CN  25336.11235841  .00014386  00000+0  17615-2 0  9992", "line2": "2 34079  86.3790  13.4941 0006818  39.8853  13.4166 14.83089059888203"}}, "geometry": {"type": "Point", "coordinates": [14.427715518927439, 17.514486521093676]}}, {"type": "Feature", "properties": {"norad_id": 34088, "name": "IRIDIUM 33 DEB", "group": "iridium-33-debris", "lat": -8.730929616451677, "lon": -144.05353499042104, "alt_km": 597.15887148816, "timestamp": "2025-12-02T13:52:17.646037+00:00", "meta": {"OBJECT_NAME": "IRIDIUM 33 DEB", "OBJECT_ID": "1997-051CX", "EPOCH": "2025-12-02T05:14:28.919328", "MEAN_MOTION": 14.90549339, "ECCENTRICITY": 0.00051268, "INCLINATION": 86.3866, "RA_OF_ASC_NODE": 35.5553, "ARG_OF_PERICENTER": 216.8077, "MEAN_ANOMALY": 203.5525, "EPHEMERIS_TYPE": 0, "CLASSIFICATION_TYPE": "U", "NORAD_CAT_ID": 34088, "ELEMENT_SET_NO": 999, "REV_AT_EPOCH": 88585, "BSTAR": 0.003087927, "MEAN_MOTION_DOT": 0.00030304, "MEAN_MOTION_DDOT": 0}, "tle": {"line1": "1 34088U 97051CX  25336.21839027  .00030304  00000+0  30879-2 0  9994", "line2": "2 34088  86.3866  35.5553 0005126 216.8077 203.5525 14.90549339885856"}}, "geometry": {"type": "Point", "coordinates": [-144.05353499042104, -8.730929616451677]}}, {"type": "Feature", "properties": {"norad_id": 34091, "name": "IRIDIUM 33 DEB", "group": "iridium-33-debris", "lat": 11.928753603731547, "lon": 72.25693972652698, "alt_km": 611.9667694181426, "timestamp": "2025-12-02T13:52:17.646047+00:00", "meta": {"OBJECT_NAME": "IRIDIUM 33 DEB", "OBJECT_ID": "1997-051DA", "EPOCH": "2025-12-02T05:42:26.763264", "MEAN_MOTION": 14.80503091, "ECCENTRICITY": 0.00329166, "INCLINATION": 86.342, "RA_OF_ASC_NODE": 71.638, "ARG_OF_PERICENTER": 331.035, "MEAN_ANOMALY": 28.9043, "EPHEMERIS_TYPE": 0, "CLASSIFICATION_TYPE": "U", "NORAD_CAT_ID": 34091, "ELEMENT_SET_NO": 999, "REV_AT_EPOCH": 87711, "BSTAR": 0.0059169187, "MEAN_MOTION_DOT": 0.00045975, "MEAN_MOTION_DDOT": 0}, "tle": {"line1": "1 34091U 97051DA  25336.23780976  .00045975  00000+0  59169-2 0  9991", "line2": "2 34091  86.3420  71.6380 0032916 331.0350  28.9043 14.80503091877114"}}, "geometry": {"type": "Point", "coordinates": [72.25693972652698, 11.928753603731547]}}, {"type": "Feature", "properties": {"norad_id": 34097, "name": "IRIDIUM 33 DEB", "group": "iridium-33-debris", "lat": 20.813324220915423, "lon": -175.55425148123177, "alt_km": 809.3317063286158, "timestamp": "2025-12-02T13:52:17.646057+00:00", "meta": {"OBJECT_NAME": "IRIDIUM 33 DEB", "OBJECT_ID": "1997-051DG", "EPOCH": "2025-12-02T03:05:43.364832", "MEAN_MOTION": 14.34646707, "ECCENTRICITY": 0.00838008, "INCLINATION": 86.2012, "RA_OF_ASC_NODE": 6.091, "ARG_OF_PERICENTER": 36.59, "MEAN_ANOMALY": 324.0979, "EPHEMERIS_TYPE": 0, "CLASSIFICATION_TYPE": "U", "NORAD_CAT_ID": 34097, "ELEMENT_SET_NO": 999, "REV_AT_EPOCH": 86967, "BSTAR": 0.001439253, "MEAN_MOTION_DOT": 4.252e-05, "MEAN_MOTION_DDOT": 0}, "tle": {"line1": "1 34097U 97051DG  25336.12897413  .00004252  00000+0  14393-2 0  9993", "line2": "2 34097  86.2012   6.0910 0083800  36.5900 324.0979 14.34646707869674"}}, "geometry": {"type": "Point", "coordinates": [-175.55425148123177, 20.813324220915423]}}, {"type": "Feature", "properties": {"norad_id": 34145, "name": "IRIDIUM 33 DEB", "group": "iridium-33-debris", "lat": 26.648635206547468, "lon": 155.1474316615701, "alt_km": 715.3058304756396, "timestamp": "2025-12-02T13:52:17.646068+00:00", "meta": {"OBJECT_NAME": "IRIDIUM 33 DEB", "OBJECT_ID": "1997-051DY", "EPOCH": "2025-12-02T04:50:28.112064", "MEAN_MOTION": 14.42171439, "ECCENTRICITY": 0.00552104, "INCLINATION": 86.2116, "RA_OF_ASC_NODE": 337.2204, "ARG_OF_PERICENTER": 127.3566, "MEAN_ANOMALY": 233.2682, "EPHEMERIS_TYPE": 0, "CLASSIFICATION_TYPE": "U", "NORAD_CAT_ID": 34145, "ELEMENT_SET_NO": 999, "REV_AT_EPOCH": 87486, "BSTAR": 0.0012017208, "MEAN_MOTION_DOT": 4.048e-05, "MEAN_MOTION_DDOT": 0}, "tle": {"line1": "1 34145U 97051DY  25336.20171426  .00004048  00000+0  12017-2 0  9999", "line2": "2 34145  86.2116 337.2204 0055210 127.3566 233.2682 14.42171439874862"}}, "geometry": {"type": "Point", "coordinates": [155.1474316615701, 26.648635206547468]}}, {"type": "Feature", "properties": {"norad_id": 34146, "name": "IRIDIUM 33 DEB", "group": "iridium-33-debris", "lat": -82.67091353463199, "lon": -155.35944005781212, "alt_km": 718.9178166266693, "timestamp": "2025-12-02T13:52:17.646078+00:00", "meta": {"OBJECT_NAME": "IRIDIUM 33 DEB", "OBJECT_ID": "1997-051DZ", "EPOCH": "2025-12-02T07:45:12.587040", "MEAN_MOTION": 14.48929067, "ECCENTRICITY": 0.00249746, "INCLINATION": 86.284, "RA_OF_ASC_NODE": 354.4024, "ARG_OF_PERICENTER": 259.0769, "MEAN_ANOMALY": 115.7131, "EPHEMERIS_TYPE": 0, "CLASSIFICATION_TYPE": "U", "NORAD_CAT_ID": 34146, "ELEMENT_SET_NO": 999, "REV_AT_EPOCH": 87956, "BSTAR": 0.0011939086, "MEAN_MOTION_DOT": 4.556e-05, "MEAN_MOTION_DDOT": 0}, "tle": {"line1": "1 34146U 97051DZ  25336.32306235  .00004556  00000+0  11939-2 0  9997", "line2": "2 34146  86.2840 354.4024 0024974 259.0769 115.7131 14.48929067879568"}}, "geometry": {"type": "Point", "coordinates": [-155.35944005781212, -82.67091353463199]}}, {"type": "Feature", "properties": {"norad_id": 34159, "name": "IRIDIUM 33 DEB", "group": "iridium-33-debris", "lat": 2.810676058124192, "lon": 52.752836935909116, "alt_km": 751.6283566873644, "timestamp": "2025-12-02T13:52:17.646089+00:00", "meta": {"OBJECT_NAME": "IRIDIUM 33 DEB", "OBJECT_ID": "1997-051EN", "EPOCH": "2025-12-02T05:30:39.558528", "MEAN_MOTION": 14.38450658, "ECCENTRICITY": 0.00265694, "INCLINATION": 86.3516, "RA_OF_ASC_NODE": 52.7218, "ARG_OF_PERICENTER": 324.6126, "MEAN_ANOMALY": 35.3308, "EPHEMERIS_TYPE": 0, "CLASSIFICATION_TYPE": "U", "NORAD_CAT_ID": 34159, "ELEMENT_SET_NO": 999, "REV_AT_EPOCH": 87808, "BSTAR": 0.00054435887, "MEAN_MOTION_DOT": 1.686e-05, "MEAN_MOTION_DDOT": 0}, "tle": {"line1": "1 34159U 97051EN  25336.22962452  .00001686  00000+0  54436-3 0  9990", "line2": "2 34159  86.3516  52.7218 0026569 324.6126  35.3308 14.38450658878087"}}, "geometry": {"type": "Point", "coordinates": [52.752836935909116, 2.810676058124192]}}, {"type": "Feature", "properties": {"norad_id": 34350, "name": "IRIDIUM 33 DEB", "group": "iridium-33-debris", "lat": 40.28169658846585, "lon": -175.90301169902634, "alt_km": 724.1300563135801, "timestamp": "2025-12-02T13:52:17.646100+00:00", "meta": {"OBJECT_NAME": "IRIDIUM 33 DEB", "OBJECT_ID": "1997-051ES", "EPOCH": "2025-12-02T01:52:09.567264", "MEAN_MOTION": 14.45347269, "ECCENTRICITY": 0.00217178, "INCLINATION": 86.3283, "RA_OF_ASC_NODE": 7.4335, "ARG_OF_PERICENTER": 168.9655, "MEAN_ANOMALY": 250.2306, "EPHEMERIS_TYPE": 0, "CLASSIFICATION_TYPE": "U", "NORAD_CAT_ID": 34350, "ELEMENT_SET_NO": 999, "REV_AT_EPOCH": 88139, "BSTAR": 0.0003667284, "MEAN_MOTION_DOT": 1.312e-05, "MEAN_MOTION_DDOT": 0}, "tle": {"line1": "1 34350U 97051ES  25336.07788851  .00001312  00000+0  36673-3 0  9994", "line2": "2 34350  86.3283   7.4335 0021717 168.9655 250.2306 14.45347269881399"}}, "geometry": {"type": "Point", "coordinates": [-175.90301169902634, 40.28169658846585]}}, {"type": "Feature", "properties": {"norad_id": 34366, "name": "IRIDIUM 33 DEB", "group": "iridium-33-debris", "lat": 27.01661278840118, "lon": -128.1230396384942, "alt_km": 697.5290825202974, "timestamp": "2025-12-02T13:52:17.646110+00:00", "meta": {"OBJECT_NAME": "IRIDIUM 33 DEB", "OBJECT_ID": "1997-051FJ", "EPOCH": "2025-12-02T06:53:50.672256", "MEAN_MOTION": 14.53895801, "ECCENTRICITY": 0.00216252, "INCLINATION": 86.3709, "RA_OF_ASC_NODE": 53.8577, "ARG_OF_PERICENTER": 173.4033, "MEAN_ANOMALY": 259.5233, "EPHEMERIS_TYPE": 0, "CLASSIFICATION_TYPE": "U", "NORAD_CAT_ID": 34366, "ELEMENT_SET_NO": 999, "REV_AT_EPOCH": 88030, "BSTAR": 0.0015729365, "MEAN_MOTION_DOT": 6.655e-05, "MEAN_MOTION_DDOT": 0}, "tle": {"line1": "1 34366U 97051FJ  25336.28739204  .00006655  00000+0  15729-2 0  9995", "line2": "2 34366  86.3709  53.8577 0021625 173.4033 259.5233 14.53895801880301"}}, "geometry": {"type": "Point", "coordinates": [-128.1230396384942, 27.01661278840118]}}]}